[{"OBJECT_NAME":"STARLINK-5760","OBJECT_ID":"2023-020Y","EPOCH":"2026-03-09T22:00:01.999584","MEAN_MOTION":15.12850663,"ECCENTRICITY":8.72e-5,"INCLINATION":42.9998,"RA_OF_ASC_NODE":2.8445,"ARG_OF_PERICENTER":255.2012,"MEAN_ANOMALY":334.0246,"EPHEMERIS_TYPE":0,"CLASSIFICATION_TYPE":"U","NORAD_CAT_ID":55591,"ELEMENT_SET_NO":999,"REV_AT_EPOCH":537,"BSTAR":0.0015897393,"MEAN_MOTION_DOT":0.00028334,"MEAN_MOTION_DDOT":0},{"OBJECT_NAME":"HAWK-12B","OBJECT_ID":"2025-138B","EPOCH":"2026-03-09T22:55:04.503936","MEAN_MOTION":15.17351346,"ECCENTRICITY":0.00148402,"INCLINATION":97.4491,"RA_OF_ASC_NODE":73.6322,"ARG_OF_PERICENTER":119.8702,"MEAN_ANOMALY":240.4008,"EPHEMERIS_TYPE":0,"CLASSIFICATION_TYPE":"U","NORAD_CAT_ID":64622,"ELEMENT_SET_NO":999,"REV_AT_EPOCH":3881,"BSTAR":0.00030366166,"MEAN_MOTION_DOT":6.011e-5,"MEAN_MOTION_DDOT":0}]
